{
    "links": {
        "self": "http://www.neowsapp.com/rest/v1/neo/3775160?api_key=iIulBulltgU6a56xZRHN4H3l9WmuAYTsLGpBGhQ2"
    },
    "id": "3775160",
    "neo_reference_id": "3775160",
    "name": "(2017 KV34)",
    "designation": "2017 KV34",
    "nasa_jpl_url": "http://ssd.jpl.nasa.gov/sbdb.cgi?sstr=3775160",
    "absolute_magnitude_h": 21.3,
    "estimated_diameter": {
        "kilometers": {
            "estimated_diameter_min": 0.1460679643,
            "estimated_diameter_max": 0.3266178974
        },
        "meters": {
            "estimated_diameter_min": 146.0679642714,
            "estimated_diameter_max": 326.6178974458
        },
        "miles": {
            "estimated_diameter_min": 0.090762397,
            "estimated_diameter_max": 0.2029508896
        },
        "feet": {
            "estimated_diameter_min": 479.2256199,
            "estimated_diameter_max": 1071.581062656
        }
    },
    "is_potentially_hazardous_asteroid": false,
    "close_approach_data": [
        {
            "close_approach_date": "2011-02-24",
            "close_approach_date_full": "2011-Feb-24 05:39",
            "epoch_date_close_approach": 1298525940000,
            "relative_velocity": {
                "kilometers_per_second": "5.955506865",
                "kilometers_per_hour": "21439.8247139928",
                "miles_per_hour": "13321.873306314"
            },
            "miss_distance": {
                "astronomical": "0.7248185727",
                "lunar": "281.9544247803",
                "kilometers": "108431314.612360149",
                "miles": "67376094.6290980962"
            },
            "orbiting_body": "Juptr"
        },
        {
            "close_approach_date": "2017-04-08",
            "close_approach_date_full": "2017-Apr-08 06:23",
            "epoch_date_close_approach": 1491632580000,
            "relative_velocity": {
                "kilometers_per_second": "11.1206180097",
                "kilometers_per_hour": "40034.2248350305",
                "miles_per_hour": "24875.7104259666"
            },
            "miss_distance": {
                "astronomical": "0.0961020541",
                "lunar": "37.3836990449",
                "kilometers": "14376662.595984767",
                "miles": "8933243.8971211046"
            },
            "orbiting_body": "Earth"
        },
        {
            "close_approach_date": "2022-12-23",
            "close_approach_date_full": "2022-Dec-23 05:52",
            "epoch_date_close_approach": 1671774720000,
            "relative_velocity": {
                "kilometers_per_second": "9.059728102",
                "kilometers_per_hour": "32615.0211672298",
                "miles_per_hour": "20265.7057913823"
            },
            "miss_distance": {
                "astronomical": "1.5157925983",
                "lunar": "589.6433207387",
                "kilometers": "226759344.067445621",
                "miles": "140901722.7038107298"
            },
            "orbiting_body": "Juptr"
        },
        {
            "close_approach_date": "2151-02-07",
            "close_approach_date_full": "2151-Feb-07 00:15",
            "epoch_date_close_approach": 5715015300000,
            "relative_velocity": {
                "kilometers_per_second": "22.8658937721",
                "kilometers_per_hour": "82317.217579619",
                "miles_per_hour": "51148.7177788472"
            },
            "miss_distance": {
                "astronomical": "0.4613998397",
                "lunar": "179.4845376433",
                "kilometers": "69024433.237461439",
                "miles": "42889793.9875842982"
            },
            "orbiting_body": "Earth"
        }
    ],
    "orbital_data": {
        "orbit_id": "4",
        "orbit_determination_date": "2017-07-01 06:48:49",
        "first_observation_date": "2017-05-30",
        "last_observation_date": "2017-06-30",
        "data_arc_in_days": 31,
        "observations_used": 27,
        "orbit_uncertainty": "7",
        "minimum_orbit_intersection": ".0564929",
        "jupiter_tisserand_invariant": "3.057",
        "epoch_osculation": "2459000.5",
        "eccentricity": ".6541058281807485",
        "semi_major_axis": "2.614915003734926",
        "inclination": "5.8259660766143",
        "ascending_node_longitude": "17.96994085954523",
        "orbital_period": "1544.488903019247",
        "perihelion_distance": ".9044838595946272",
        "perihelion_argument": "172.7808317231083",
        "aphelion_distance": "4.325346147875225",
        "perihelion_time": "2459390.046568560885",
        "mean_anomaly": "269.2018308401074",
        "mean_motion": ".2330868155130499",
        "equinox": "J2000",
        "orbit_class": {
            "orbit_class_type": "APO",
            "orbit_class_description": "Near-Earth asteroid orbits which cross the Earth’s orbit similar to that of 1862 Apollo",
            "orbit_class_range": "a (semi-major axis) > 1.0 AU; q (perihelion) < 1.017 AU"
        }
    },
    "is_sentry_object": false
}